HULIANWANG DIGUI-65     
1 65171U 25174H   26064.82577874  .00000058  00000+0  10209-3 0  9992
2 65171  86.4843 286.8224 0001228  88.5014 271.6261 13.24422404 27107
HULIANWANG DIGUI-66     
1 65172U 25174J   26064.81824919  .00000065  00000+0  11772-3 0  9991
2 65172  86.4879 286.8913 0001271  90.6213 269.5066 13.24422046 27106
HULIANWANG DIGUI-67     
1 65173U 25174K   26064.75784236  .00000055  00000+0  94661-4 0  9990
2 65173  86.4890 286.9454 0001263  88.8532 271.2746 13.24421650 27065
HULIANWANG DIGUI-68     
1 65228U 25178A   26064.85591360  .00000022  00000+0  17057-4 0  9998
2 65228  86.4942  48.3898 0002022  79.7758 280.3604 13.24423897 26630
HULIANWANG DIGUI-69     
1 65229U 25178B   26064.77312403  .00000022  00000+0  17230-4 0  9992
2 65229  86.4962  48.4527 0001963  81.0840 279.0516 13.24417717 26624
HULIANWANG DIGUI-70     
1 65230U 25178C   26064.76552520  .00000036  00000+0  48570-4 0  9995
2 65230  86.4901  48.3239 0002071  79.6094 280.5274 13.24418683 26624
HULIANWANG DIGUI-71     
1 65231U 25178D   26064.83349293  .00000053  00000+0  88408-4 0  9998
2 65231  86.4960  48.4154 0002013  80.8536 279.2826 13.24419598 26633
HULIANWANG DIGUI-72     
1 65232U 25178E   26064.82589556  .00000052  00000+0  86911-4 0  9992
2 65232  86.4942  48.3759 0002025  81.7428 278.3936 13.24420015 26635
HULIANWANG DIGUI-73     
1 65305U 25187A   26064.76546308 -.00000098  00000+0  56488-4 0  9991
2 65305  50.0037 216.7944 0001041 140.3680 219.7269 13.29342478 25946
HULIANWANG DIGUI-74     
1 65306U 25187B   26064.82391677 -.00000098  00000+0  57206-4 0  9995
2 65306  50.0080 216.5041 0001044 141.2562 218.8385 13.29343008 25953
HULIANWANG DIGUI-75     
1 65307U 25187C   26064.80727228 -.00000100  00000+0  52884-4 0  9990
2 65307  50.0072 216.4057 0001037 139.4989 220.5960 13.29341990 25952
HULIANWANG DIGUI-76     
1 65308U 25187D   26064.79075611 -.00000090  00000+0  72564-4 0  9996
2 65308  49.9996 216.8584 0001032 137.6497 222.4455 13.29339335 25942
HULIANWANG DIGUI-77     
1 65309U 25187E   26064.78225507 -.00000091  00000+0  70231-4 0  9997
2 65309  50.0030 216.8683 0001073 137.7901 222.3054 13.29341223 25944
HULIANWANG DIGUI-78     
1 65310U 25187F   26064.81566503 -.00000096  00000+0  60535-4 0  9998
2 65310  50.0096 216.4873 0001024 141.1272 218.9674 13.29341719 25951
HULIANWANG DIGUI-79     
1 65311U 25187G   26064.79880383 -.00000098  00000+0  55149-4 0  9998
2 65311  50.0026 216.9462 0001030 137.9709 222.1242 13.29343108 25940
HULIANWANG DIGUI-80     
1 65312U 25187H   26064.77387161 -.00000086  00000+0  81424-4 0  9995
2 65312  50.0016 216.8031 0001062 137.8732 222.2222 13.29341313 25946
