[{"OBJECT_NAME":"HULIANWANG DIGUI-65","OBJECT_ID":"2025-174H","EPOCH":"2026-03-05T19:49:07.283136","MEAN_MOTION":13.24422404,"ECCENTRICITY":0.0001228,"INCLINATION":86.4843,"RA_OF_ASC_NODE":286.8224,"ARG_OF_PERICENTER":88.5014,"MEAN_ANOMALY":271.6261,"EPHEMERIS_TYPE":0,"CLASSIFICATION_TYPE":"U","NORAD_CAT_ID":65171,"ELEMENT_SET_NO":999,"REV_AT_EPOCH":2710,"BSTAR":0.00010209,"MEAN_MOTION_DOT":5.8e-7,"MEAN_MOTION_DDOT":0},{"OBJECT_NAME":"HULIANWANG DIGUI-66","OBJECT_ID":"2025-174J","EPOCH":"2026-03-05T19:38:16.730016","MEAN_MOTION":13.24422046,"ECCENTRICITY":0.0001271,"INCLINATION":86.4879,"RA_OF_ASC_NODE":286.8913,"ARG_OF_PERICENTER":90.6213,"MEAN_ANOMALY":269.5066,"EPHEMERIS_TYPE":0,"CLASSIFICATION_TYPE":"U","NORAD_CAT_ID":65172,"ELEMENT_SET_NO":999,"REV_AT_EPOCH":2710,"BSTAR":0.00011772,"MEAN_MOTION_DOT":6.5e-7,"MEAN_MOTION_DDOT":0},{"OBJECT_NAME":"HULIANWANG DIGUI-67","OBJECT_ID":"2025-174K","EPOCH":"2026-03-05T18:11:17.579904","MEAN_MOTION":13.2442165,"ECCENTRICITY":0.0001263,"INCLINATION":86.489,"RA_OF_ASC_NODE":286.9454,"ARG_OF_PERICENTER":88.8532,"MEAN_ANOMALY":271.2746,"EPHEMERIS_TYPE":0,"CLASSIFICATION_TYPE":"U","NORAD_CAT_ID":65173,"ELEMENT_SET_NO":999,"REV_AT_EPOCH":2706,"BSTAR":9.4661e-5,"MEAN_MOTION_DOT":5.5e-7,"MEAN_MOTION_DDOT":0},{"OBJECT_NAME":"HULIANWANG DIGUI-68","OBJECT_ID":"2025-178A","EPOCH":"2026-03-05T20:32:30.935040","MEAN_MOTION":13.24423897,"ECCENTRICITY":0.0002022,"INCLINATION":86.4942,"RA_OF_ASC_NODE":48.3898,"ARG_OF_PERICENTER":79.7758,"MEAN_ANOMALY":280.3604,"EPHEMERIS_TYPE":0,"CLASSIFICATION_TYPE":"U","NORAD_CAT_ID":65228,"ELEMENT_SET_NO":999,"REV_AT_EPOCH":2663,"BSTAR":1.7057e-5,"MEAN_MOTION_DOT":2.2e-7,"MEAN_MOTION_DDOT":0},{"OBJECT_NAME":"HULIANWANG DIGUI-69","OBJECT_ID":"2025-178B","EPOCH":"2026-03-05T18:33:17.916192","MEAN_MOTION":13.24417717,"ECCENTRICITY":0.0001963,"INCLINATION":86.4962,"RA_OF_ASC_NODE":48.4527,"ARG_OF_PERICENTER":81.084,"MEAN_ANOMALY":279.0516,"EPHEMERIS_TYPE":0,"CLASSIFICATION_TYPE":"U","NORAD_CAT_ID":65229,"ELEMENT_SET_NO":999,"REV_AT_EPOCH":2662,"BSTAR":1.723e-5,"MEAN_MOTION_DOT":2.2e-7,"MEAN_MOTION_DDOT":0},{"OBJECT_NAME":"HULIANWANG DIGUI-70","OBJECT_ID":"2025-178C","EPOCH":"2026-03-05T18:22:21.377280","MEAN_MOTION":13.24418683,"ECCENTRICITY":0.0002071,"INCLINATION":86.4901,"RA_OF_ASC_NODE":48.3239,"ARG_OF_PERICENTER":79.6094,"MEAN_ANOMALY":280.5274,"EPHEMERIS_TYPE":0,"CLASSIFICATION_TYPE":"U","NORAD_CAT_ID":65230,"ELEMENT_SET_NO":999,"REV_AT_EPOCH":2662,"BSTAR":4.857e-5,"MEAN_MOTION_DOT":3.6e-7,"MEAN_MOTION_DDOT":0},{"OBJECT_NAME":"HULIANWANG DIGUI-71","OBJECT_ID":"2025-178D","EPOCH":"2026-03-05T20:00:13.789152","MEAN_MOTION":13.24419598,"ECCENTRICITY":0.0002013,"INCLINATION":86.496,"RA_OF_ASC_NODE":48.4154,"ARG_OF_PERICENTER":80.8536,"MEAN_ANOMALY":279.2826,"EPHEMERIS_TYPE":0,"CLASSIFICATION_TYPE":"U","NORAD_CAT_ID":65231,"ELEMENT_SET_NO":999,"REV_AT_EPOCH":2663,"BSTAR":8.8408e-5,"MEAN_MOTION_DOT":5.3e-7,"MEAN_MOTION_DDOT":0},{"OBJECT_NAME":"HULIANWANG DIGUI-72","OBJECT_ID":"2025-178E","EPOCH":"2026-03-05T19:49:17.376384","MEAN_MOTION":13.24420015,"ECCENTRICITY":0.0002025,"INCLINATION":86.4942,"RA_OF_ASC_NODE":48.3759,"ARG_OF_PERICENTER":81.7428,"MEAN_ANOMALY":278.3936,"EPHEMERIS_TYPE":0,"CLASSIFICATION_TYPE":"U","NORAD_CAT_ID":65232,"ELEMENT_SET_NO":999,"REV_AT_EPOCH":2663,"BSTAR":8.6911e-5,"MEAN_MOTION_DOT":5.2e-7,"MEAN_MOTION_DDOT":0},{"OBJECT_NAME":"HULIANWANG DIGUI-73","OBJECT_ID":"2025-187A","EPOCH":"2026-03-05T18:22:16.010112","MEAN_MOTION":13.29342478,"ECCENTRICITY":0.0001041,"INCLINATION":50.0037,"RA_OF_ASC_NODE":216.7944,"ARG_OF_PERICENTER":140.368,"MEAN_ANOMALY":219.7269,"EPHEMERIS_TYPE":0,"CLASSIFICATION_TYPE":"U","NORAD_CAT_ID":65305,"ELEMENT_SET_NO":999,"REV_AT_EPOCH":2594,"BSTAR":5.6488e-5,"MEAN_MOTION_DOT":-9.8e-7,"MEAN_MOTION_DDOT":0},{"OBJECT_NAME":"HULIANWANG DIGUI-74","OBJECT_ID":"2025-187B","EPOCH":"2026-03-05T19:46:26.408928","MEAN_MOTION":13.29343008,"ECCENTRICITY":0.0001044,"INCLINATION":50.008,"RA_OF_ASC_NODE":216.5041,"ARG_OF_PERICENTER":141.2562,"MEAN_ANOMALY":218.8385,"EPHEMERIS_TYPE":0,"CLASSIFICATION_TYPE":"U","NORAD_CAT_ID":65306,"ELEMENT_SET_NO":999,"REV_AT_EPOCH":2595,"BSTAR":5.7206e-5,"MEAN_MOTION_DOT":-9.8e-7,"MEAN_MOTION_DDOT":0},{"OBJECT_NAME":"HULIANWANG DIGUI-75","OBJECT_ID":"2025-187C","EPOCH":"2026-03-05T19:22:28.324992","MEAN_MOTION":13.2934199,"ECCENTRICITY":0.0001037,"INCLINATION":50.0072,"RA_OF_ASC_NODE":216.4057,"ARG_OF_PERICENTER":139.4989,"MEAN_ANOMALY":220.596,"EPHEMERIS_TYPE":0,"CLASSIFICATION_TYPE":"U","NORAD_CAT_ID":65307,"ELEMENT_SET_NO":999,"REV_AT_EPOCH":2595,"BSTAR":5.2884e-5,"MEAN_MOTION_DOT":-1.0e-6,"MEAN_MOTION_DDOT":0},{"OBJECT_NAME":"HULIANWANG DIGUI-76","OBJECT_ID":"2025-187D","EPOCH":"2026-03-05T18:58:41.327904","MEAN_MOTION":13.29339335,"ECCENTRICITY":0.0001032,"INCLINATION":49.9996,"RA_OF_ASC_NODE":216.8584,"ARG_OF_PERICENTER":137.6497,"MEAN_ANOMALY":222.4455,"EPHEMERIS_TYPE":0,"CLASSIFICATION_TYPE":"U","NORAD_CAT_ID":65308,"ELEMENT_SET_NO":999,"REV_AT_EPOCH":2594,"BSTAR":7.2564e-5,"MEAN_MOTION_DOT":-9.0e-7,"MEAN_MOTION_DDOT":0},{"OBJECT_NAME":"HULIANWANG DIGUI-77","OBJECT_ID":"2025-187E","EPOCH":"2026-03-05T18:46:26.838048","MEAN_MOTION":13.29341223,"ECCENTRICITY":0.0001073,"INCLINATION":50.003,"RA_OF_ASC_NODE":216.8683,"ARG_OF_PERICENTER":137.7901,"MEAN_ANOMALY":222.3054,"EPHEMERIS_TYPE":0,"CLASSIFICATION_TYPE":"U","NORAD_CAT_ID":65309,"ELEMENT_SET_NO":999,"REV_AT_EPOCH":2594,"BSTAR":7.0231e-5,"MEAN_MOTION_DOT":-9.1e-7,"MEAN_MOTION_DDOT":0},{"OBJECT_NAME":"HULIANWANG DIGUI-78","OBJECT_ID":"2025-187F","EPOCH":"2026-03-05T19:34:33.458592","MEAN_MOTION":13.29341719,"ECCENTRICITY":0.0001024,"INCLINATION":50.0096,"RA_OF_ASC_NODE":216.4873,"ARG_OF_PERICENTER":141.1272,"MEAN_ANOMALY":218.9674,"EPHEMERIS_TYPE":0,"CLASSIFICATION_TYPE":"U","NORAD_CAT_ID":65310,"ELEMENT_SET_NO":999,"REV_AT_EPOCH":2595,"BSTAR":6.0535e-5,"MEAN_MOTION_DOT":-9.6e-7,"MEAN_MOTION_DDOT":0},{"OBJECT_NAME":"HULIANWANG DIGUI-79","OBJECT_ID":"2025-187G","EPOCH":"2026-03-05T19:10:16.650912","MEAN_MOTION":13.29343108,"ECCENTRICITY":0.000103,"INCLINATION":50.0026,"RA_OF_ASC_NODE":216.9462,"ARG_OF_PERICENTER":137.9709,"MEAN_ANOMALY":222.1242,"EPHEMERIS_TYPE":0,"CLASSIFICATION_TYPE":"U","NORAD_CAT_ID":65311,"ELEMENT_SET_NO":999,"REV_AT_EPOCH":2594,"BSTAR":5.5149e-5,"MEAN_MOTION_DOT":-9.8e-7,"MEAN_MOTION_DDOT":0},{"OBJECT_NAME":"HULIANWANG DIGUI-80","OBJECT_ID":"2025-187H","EPOCH":"2026-03-05T18:34:22.507104","MEAN_MOTION":13.29341313,"ECCENTRICITY":0.0001062,"INCLINATION":50.0016,"RA_OF_ASC_NODE":216.8031,"ARG_OF_PERICENTER":137.8732,"MEAN_ANOMALY":222.2222,"EPHEMERIS_TYPE":0,"CLASSIFICATION_TYPE":"U","NORAD_CAT_ID":65312,"ELEMENT_SET_NO":999,"REV_AT_EPOCH":2594,"BSTAR":8.1424e-5,"MEAN_MOTION_DOT":-8.6e-7,"MEAN_MOTION_DDOT":0}]
